HORIZONS-2              
1 32388C 07063B   23037.00000000 -.00000156  00000-0  00000-0 0   371
2 32388   0.0188 209.0081 0002445 110.4190 102.6316  1.00270877    16
HORIZONS-2              
1 32388C 07063B   23039.95960648 -.00000119  00000-0  00000-0 0   391
2 32388   0.0220 225.8044 0002253  99.8241  84.8097  1.00272725    13
HORIZONS-2          [PM]
1 32388C 07063B   23042.08815972 -.00000163  00000-0  00000-0 0   421
2 32388   0.0205 239.2973 0002256  96.9991 122.5251  1.00270658    14
GALAXY 18 (G-18)        
1 32951C 08024A   23037.00000000  .00000115  00000-0  00000-0 0   379
2 32951   0.0063 174.8313 0003223 148.3163  49.7049  1.00270669    19
GALAXY 18 (G-18)        
1 32951C 08024A   23039.95960648  .00000118  00000-0  00000-0 0   393
2 32951   0.0009 165.1564 0003141 165.0034  31.0745  1.00270512    16
GALAXY 18 (G-18)    [PM]
1 32951C 08024A   23040.10416667  .00000117  00000-0  00000-0 0   400
2 32951   0.0010 165.5158 0003168 164.9331  82.9690  1.00270581    18
INTELSAT 25 (IS-25)     
1 33153C 08034A   23037.00000000 -.00000142  00000-0  00000-0 0   376
2 33153   0.0459 274.4156 0003179  48.7139 141.2187  1.00271753    17
INTELSAT 25 (IS-25)     
1 33153C 08034A   23039.95960648 -.00000163  00000-0  00000-0 0   390
2 33153   0.0321 298.4161 0002992  34.6451 119.6675  1.00271309    18
INTELSAT 25 (IS-25) [PM]
1 33153C 08034A   23042.89218750 -.00000137  00000-0  00000-0 0   422
2 33153   0.0347 313.9957 0002859 334.7325 142.6211  1.00272242    17
GALAXY 19 (G-19)        
1 33376C 08045A   23037.00000000 -.00000049  00000-0  00000-0 0   371
2 33376   0.0147 102.2078 0003056 216.9866  79.6475  1.00269770    19
GALAXY 19 (G-19)        
1 33376C 08045A   23039.95960648 -.00000052  00000-0  00000-0 0   396
2 33376   0.0000 124.2849 0003018 200.8045  62.1395  1.00270557    19
GALAXY 19 (G-19)    [PM]
1 33376C 08045A   23042.14243056  .00000162  00000-0  00000-0 0   423
2 33376   0.0222 239.1097 0002971  90.3395 125.7362  1.00272620    16
INTELSAT 14 (IS-14)     
1 36097C 09064A   23037.00000000 -.00000121  00000-0  00000-0 0   377
2 36097   0.0000 104.5881 0002703 212.0808 134.1847  1.00271563    11
INTELSAT 14 (IS-14)     
1 36097C 09064A   23039.95960648 -.00000240  00000-0  00000-0 0   390
2 36097   0.0022 107.6327 0002515 214.3272 117.2686  1.00273465    11
INTELSAT 14 (IS-14) [PM]
1 36097C 09064A   23044.99173611 -.00000180  00000-0  00000-0 0   445
2 36097   0.0009  17.3621 0002157 324.3045 114.1060  1.00268485    10
INTELSAT 15 (IS-15)     
1 36106C 09067A   23037.00000000 -.00000095  00000-0  00000-0 0   371
2 36106   0.0162  77.2917 0002644 249.6592 254.0599  1.00271996    13
INTELSAT 15 (IS-15)     
1 36106C 09067A   23039.95960648 -.00000113  00000-0  00000-0 0   393
2 36106   0.0208 355.4962 0002531 341.1598 232.7280  1.00271647    17
INTELSAT 15 (IS-15) [PM]
1 36106C 09067A   23047.00565972 -.00000095  00000-0  00000-0 0   477
2 36106   0.0145  77.5999 0002110 260.6665 254.6465  1.00270920    13
INTELSAT 16 (IS-16)     
1 36397C 10006A   23037.00000000 -.00000108  00000-0  00000-0 0   373
2 36397   0.0236 339.9657 0002210 336.6448 103.0444  1.00270393    14
INTELSAT 16 (IS-16)     
1 36397C 10006A   23039.95960648 -.00000151  00000-0  00000-0 0   392
2 36397   0.0059  28.2074 0002105 295.0265  84.7947  1.00272260    14
INTELSAT 16 (IS-16) [PM]
1 36397C 10006A   23045.49878472 -.00000155  00000-0  00000-0 0   452
2 36397   0.0118  56.8334 0001907 287.8265 262.9284  1.00273039    13
INTELSAT 17 (IS-17)     
1 37238C 10065B   23037.00000000  .00000052  00000-0  00000-0 0   370
2 37238   0.0500 259.5190 0003040  65.0295 237.3033  1.00270686    17
INTELSAT 17 (IS-17) [PM]
1 37238C 10065B   23039.52841435  .00000084  00000-0  00000-0 0   391
2 37238   0.0481 292.4905 0002636 218.3861 243.6983  1.00271197    19
INTELSAT 17 (IS-17)     
1 37238C 10065B   23039.95960648  .00000072  00000-0  00000-0 0   393
2 37238   0.0358 229.6866 0002743  98.2571 222.2851  1.00276266    11
INTELSAT NEW DAWN       
1 37392C 11016A   23037.00000000  .00000246  00000-0  00000-0 0   373
2 37392   0.0128 142.4100 0001118 120.6961 265.5429  1.00270964    18
INTELSAT NEW DAWN       
1 37392C 11016A   23039.95960648  .00000246  00000-0  00000-0 0   394
2 37392   0.0125 138.6053 0000637 134.5269 243.8946  1.00272159    10
INTELSAT NEW DAWN   [PM]
1 37392C 11016A   23043.72901620  .00000244  00000-0  00000-0 0   432
2 37392   0.0279 339.9683 0000893  57.1696  40.5874  1.00269713    17
INTELSAT 18 (IS-18)     
1 37834C 11056A   23037.00000000  .00000142  00000-0  00000-0 0   373
2 37834   0.0204  13.9494 0002217 310.4921 351.4067  1.00271474    18
INTELSAT 18 (IS-18)     
1 37834C 11056A   23039.95960648  .00000143  00000-0  00000-0 0   395
2 37834   0.0222  20.6641 0002040 311.6859 331.8839  1.00270078    12
INTELSAT 18 (IS-18) [PM]
1 37834C 11056A   23043.38130787  .00000139  00000-0  00000-0 0   430
2 37834   0.0360 310.1789 0001921  30.9565 118.2741  1.00272073    13
INTELSAT 22 (IS-22)     
1 38098C 12011A   23037.00000000 -.00000063  00000-0  00000-0 0   371
2 38098   0.0162 204.0636 0002921 107.1838 256.7035  1.00269980    16
INTELSAT 22 (IS-22) [PM]
1 38098C 12011A   23039.93185185  .00000030  00000-0  00000-0 0   398
2 38098   0.0127 197.7795 0002727 124.2497 224.2804  1.00271713    17
INTELSAT 22 (IS-22)     
1 38098C 12011A   23039.95960648  .00000038  00000-0  00000-0 0   393
2 38098   0.0124 196.5016 0002721 125.4822 234.3450  1.00271762    19
INTELSAT 19 (IS-19)     
1 38356C 12030A   23037.00000000 -.00000079  00000-0  00000-0 0   376
2 38356   0.0000 136.5839 0003444 185.8655 339.4039  1.00271084    10
INTELSAT 19 (IS-19)     
1 38356C 12030A   23039.95960648 -.00000022  00000-0  00000-0 0   395
2 38356   0.0424 285.7317 0003317  43.7619 320.7342  1.00271437    11
INTELSAT 19 (IS-19) [PM]
1 38356C 12030A   23046.40000000  .00000033  00000-0  00000-0 0   469
2 38356   0.0000  99.8146 0003094 242.4059 112.8996  1.00271173    15
INTELSAT 20 (IS-20)     
1 38740C 12043A   23036.90596065  .00000066  00000-0  00000-0 0   360
2 38740   0.0164 128.5182 0001665  62.5441 339.3460  1.00270555    16
INTELSAT 20 (IS-20) [PM]
1 38740C 12043A   23039.28401620  .00000066  00000-0  00000-0 0   399
2 38740   0.0566 264.2847 0001764  12.7948  31.7670  1.00272744    15
INTELSAT 20 (IS-20)     
1 38740C 12043A   23040.00000000  .00000066  00000-0  00000-0 0   400
2 38740   0.0157 130.6146 0001932  45.7290  30.9661  1.00270481    19
INTELSAT 21 (IS-21)     
1 38749C 12045A   23037.00000000  .00000017  00000-0  00000-0 0   379
2 38749   0.0020 152.7302 0002173 163.0149 122.1102  1.00270835    18
INTELSAT 21 (IS-21)     
1 38749C 12045A   23039.95960648 -.00000258  00000-0  00000-0 0   398
2 38749   0.0045  97.7077 0001989 230.3030  98.2096  1.00269369    18
INTELSAT 21 (IS-21) [PM]
1 38749C 12045A   23044.52782407 -.00000228  00000-0  00000-0 0   445
2 38749   0.0013   9.1023 0001876 323.5208 302.6761  1.00271355    17
INTELSAT 23 (IS-23)     
1 38867C 12057A   23037.00000000 -.00000267  00000-0  00000-0 0   371
2 38867   0.0363 229.0181 0001773 127.6066  86.2425  1.00272784    14
INTELSAT 23 (IS-23)     
1 38867C 12057A   23039.95960648 -.00000241  00000-0  00000-0 0   394
2 38867   0.0438 268.9883 0001208  66.0677  96.1806  1.00280652    11
INTELSAT 23 (IS-23) [PM]
1 38867C 12057A   23043.93479167 -.00000178  00000-0  00000-0 0   432
2 38867   0.0173 263.8722 0001086  30.0316 132.2771  1.00283064    11
INTELSAT 30 (IS-30)     
1 40271C 14062A   23036.90596065 -.00000064  00000-0  00000-0 0   364
2 40271   0.0000 108.4542 0001910   8.2852 250.1132  1.00269623    10
INTELSAT 30 (IS-30) [PM]
1 40271C 14062A   23039.27548611 -.00000071  00000-0  00000-0 0   392
2 40271   0.0488 279.6088 0002134 293.0766 289.5241  1.00273150    10
INTELSAT 30 (IS-30)     
1 40271C 14062A   23040.00000000 -.00000061  00000-0  00000-0 0   401
2 40271   0.0000 122.0784 0002092 346.7911 294.8817  1.00271326    16
INTELSAT 34 (IS-34)     
1 40874C 15039A   23036.90596065 -.00000192  00000-0  00000-0 0   360
2 40874   0.0389 268.5262 0000818 317.8270 180.0612  1.00270666    18
INTELSAT 34 (IS-34)     
1 40874C 15039A   23040.00000000  .00000060  00000-0  00000-0 0   403
2 40874   0.0134 207.4484 0000310  14.8735 220.9957  1.00269625    10
INTELSAT 34 (IS-34) [PM]
1 40874C 15039A   23040.23280093 -.00000253  00000-0  00000-0 0   405
2 40874   0.0251 297.9883 0000572 348.2832 241.0785  1.00273186    19
INTELSAT 31 (IS-31)     
1 41581C 16035A   23036.90596065 -.00000067  00000-0  00000-0 0   364
2 41581   0.0356 224.7453 0002179 354.9640 147.1496  1.00270223    12
INTELSAT 31 (IS-31)     
1 41581C 16035A   23040.00000000 -.00000105  00000-0  00000-0 0   407
2 41581   0.0405 258.9030 0002127 313.2081 191.6501  1.00269709    15
INTELSAT 31 (IS-31) [PM]
1 41581C 16035A   23040.33652778 -.00000067  00000-0  00000-0 0   405
2 41581   0.0213 346.9438 0002093 342.6811 195.6134  1.00272930    17
INTELSAT 36 (IS-36)     
1 41747C 16053A   23036.90596065  .00000072  00000-0  00000-0 0   363
2 41747   0.0017  60.2384 0001232 282.4010 187.7644  1.00270430    16
INTELSAT 36 (IS-36) [PM]
1 41747C 16053A   23038.83469907  .00000076  00000-0  00000-0 0   387
2 41747   0.0467 301.7365 0001222 352.4531 212.4516  1.00272488    11
INTELSAT 36 (IS-36)     
1 41747C 16053A   23040.00000000  .00000066  00000-0  00000-0 0   406
2 41747   0.0041  65.7210 0001224 297.0249 204.5559  1.00271002    17
INTELSAT 33E            
1 41748C 16053B   23037.00000000  .00000101  00000-0  00000-0 0   379
2 41748   0.0002  32.8653 0001720 276.7272 246.2579  1.00272486    14
INTELSAT 33E            
1 41748C 16053B   23039.95960648  .00000141  00000-0  00000-0 0   394
2 41748   0.0001 167.7863 0001766 155.0525 221.3891  1.00269172    13
